[{"OBJECT_NAME":"STARLINK-3117","OBJECT_ID":"2021-104AD","EPOCH":"2026-03-09T16:53:19.007808","MEAN_MOTION":15.08831853,"ECCENTRICITY":0.00012339,"INCLINATION":53.2181,"RA_OF_ASC_NODE":209.0594,"ARG_OF_PERICENTER":85.8905,"MEAN_ANOMALY":274.2228,"EPHEMERIS_TYPE":0,"CLASSIFICATION_TYPE":"U","NORAD_CAT_ID":49435,"ELEMENT_SET_NO":999,"REV_AT_EPOCH":23891,"BSTAR":1.8014244e-5,"MEAN_MOTION_DOT":-1.0e-8,"MEAN_MOTION_DDOT":0},{"OBJECT_NAME":"KUIPER-00148","OBJECT_ID":"2025-217H","EPOCH":"2026-03-09T06:36:19.446048","MEAN_MOTION":15.09536529,"ECCENTRICITY":0.00081087,"INCLINATION":51.8794,"RA_OF_ASC_NODE":26.5769,"ARG_OF_PERICENTER":351.8096,"MEAN_ANOMALY":8.2745,"EPHEMERIS_TYPE":0,"CLASSIFICATION_TYPE":"U","NORAD_CAT_ID":65769,"ELEMENT_SET_NO":999,"REV_AT_EPOCH":2507,"BSTAR":0.00098730243,"MEAN_MOTION_DOT":0.00015783,"MEAN_MOTION_DDOT":0}]
