STARLINK-3117           
1 49435U 21104AD  26068.70369222 -.00000001  00000+0  18014-4 0  9995
2 49435  53.2181 209.0594 0001234  85.8905 274.2228 15.08831853238913
KUIPER-00148            
1 65769U 25217H   26068.27522507  .00015783  00000+0  98730-3 0  9995
2 65769  51.8794  26.5769 0008108 351.8096   8.2745 15.09536529 25078
